[
  {
    "OBJECT_NAME": "STARLINK-4453",
    "OBJECT_ID": "22099AJ",
    "EPOCH": "2025-11-11T07:16:24.813408",
    "MEAN_MOTION": 15.01263956,
    "ECCENTRICITY": 0.0002667,
    "INCLINATION": 97.6016,
    "RA_OF_ASC_NODE": 74.3006,
    "ARG_OF_PERICENTER": 206.1218,
    "MEAN_ANOMALY": 153.9873,
    "EPHEMERIS_TYPE": 0,
    "CLASSIFICATION_TYPE": "U",
    "NORAD_CAT_ID": 53497,
    "ELEMENT_SET_NO": 999,
    "REV_AT_EPOCH": 17822,
    "BSTAR": 0.00020033,
    "MEAN_MOTION_DOT": 2.516e-05,
    "MEAN_MOTION_DDOT": 0.0,
    "TLE_LINE1": "1 53497U 22099AJ  25315.30306497  .00002516  00000+0  20033-3 0  9992",
    "TLE_LINE2": "2 53497  97.6016  74.3006 0002667 206.1218 153.9873 15.01263956178224",
    "COMMENT": "Grouped by shell and plane from TLE"
  },
  {
    "OBJECT_NAME": "STARLINK-4439",
    "OBJECT_ID": "22099AK",
    "EPOCH": "2025-11-11T07:18:16.706592",
    "MEAN_MOTION": 15.05648692,
    "ECCENTRICITY": 0.00015,
    "INCLINATION": 97.604,
    "RA_OF_ASC_NODE": 74.4696,
    "ARG_OF_PERICENTER": 85.7691,
    "MEAN_ANOMALY": 274.3707,
    "EPHEMERIS_TYPE": 0,
    "CLASSIFICATION_TYPE": "U",
    "NORAD_CAT_ID": 53498,
    "ELEMENT_SET_NO": 999,
    "REV_AT_EPOCH": 17823,
    "BSTAR": 6.1386e-05,
    "MEAN_MOTION_DOT": 8.25e-06,
    "MEAN_MOTION_DDOT": 0.0,
    "TLE_LINE1": "1 53498U 22099AK  25315.30436003  .00000825  00000+0  61386-4 0  9998",
    "TLE_LINE2": "2 53498  97.6040  74.4696 0001500  85.7691 274.3707 15.05648692178232",
    "COMMENT": "Grouped by shell and plane from TLE"
  },
  {
    "OBJECT_NAME": "STARLINK-4454",
    "OBJECT_ID": "22099AL",
    "EPOCH": "2025-11-11T07:38:13.101216",
    "MEAN_MOTION": 15.05660065,
    "ECCENTRICITY": 0.0001415,
    "INCLINATION": 97.6025,
    "RA_OF_ASC_NODE": 74.5927,
    "ARG_OF_PERICENTER": 82.473,
    "MEAN_ANOMALY": 277.6658,
    "EPHEMERIS_TYPE": 0,
    "CLASSIFICATION_TYPE": "U",
    "NORAD_CAT_ID": 53499,
    "ELEMENT_SET_NO": 999,
    "REV_AT_EPOCH": 17824,
    "BSTAR": 0.0,
    "MEAN_MOTION_DOT": -2.245e-05,
    "MEAN_MOTION_DDOT": 0.0,
    "TLE_LINE1": "1 53499U 22099AL  25315.31820719 -.00002245  00000+0 -15137-3 0  9993",
    "TLE_LINE2": "2 53499  97.6025  74.5927 0001415  82.4730 277.6658 15.05660065178247",
    "COMMENT": "Grouped by shell and plane from TLE"
  },
  {
    "OBJECT_NAME": "STARLINK-4455",
    "OBJECT_ID": "22099AM",
    "EPOCH": "2025-11-11T07:22:16.660992",
    "MEAN_MOTION": 15.05647452,
    "ECCENTRICITY": 9.01e-05,
    "INCLINATION": 97.6027,
    "RA_OF_ASC_NODE": 74.6146,
    "ARG_OF_PERICENTER": 85.5787,
    "MEAN_ANOMALY": 274.5543,
    "EPHEMERIS_TYPE": 0,
    "CLASSIFICATION_TYPE": "U",
    "NORAD_CAT_ID": 53500,
    "ELEMENT_SET_NO": 999,
    "REV_AT_EPOCH": 17824,
    "BSTAR": 8.1985e-05,
    "MEAN_MOTION_DOT": 1.122e-05,
    "MEAN_MOTION_DDOT": 0.0,
    "TLE_LINE1": "1 53500U 22099AM  25315.30713728  .00001122  00000+0  81985-4 0  9992",
    "TLE_LINE2": "2 53500  97.6027  74.6146 0000901  85.5787 274.5543 15.05647452178245",
    "COMMENT": "Grouped by shell and plane from TLE"
  },
  {
    "OBJECT_NAME": "STARLINK-4434",
    "OBJECT_ID": "22099AN",
    "EPOCH": "2025-11-11T07:05:45.436992",
    "MEAN_MOTION": 15.01261971,
    "ECCENTRICITY": 0.000253,
    "INCLINATION": 97.6059,
    "RA_OF_ASC_NODE": 74.303,
    "ARG_OF_PERICENTER": 231.7648,
    "MEAN_ANOMALY": 128.3349,
    "EPHEMERIS_TYPE": 0,
    "CLASSIFICATION_TYPE": "U",
    "NORAD_CAT_ID": 53501,
    "ELEMENT_SET_NO": 999,
    "REV_AT_EPOCH": 17822,
    "BSTAR": 0.00032543,
    "MEAN_MOTION_DOT": 4.124e-05,
    "MEAN_MOTION_DDOT": 0.0,
    "TLE_LINE1": "1 53501U 22099AN  25315.29566478  .00004124  00000+0  32543-3 0  9999",
    "TLE_LINE2": "2 53501  97.6059  74.3030 0002530 231.7648 128.3349 15.01261971178223",
    "COMMENT": "Grouped by shell and plane from TLE"
  },
  {
    "OBJECT_NAME": "STARLINK-4435",
    "OBJECT_ID": "22099AP",
    "EPOCH": "2025-11-11T06:42:26.312544",
    "MEAN_MOTION": 15.05617255,
    "ECCENTRICITY": 0.000126,
    "INCLINATION": 97.6083,
    "RA_OF_ASC_NODE": 74.4882,
    "ARG_OF_PERICENTER": 88.126,
    "MEAN_ANOMALY": 272.0111,
    "EPHEMERIS_TYPE": 0,
    "CLASSIFICATION_TYPE": "U",
    "NORAD_CAT_ID": 53502,
    "ELEMENT_SET_NO": 999,
    "REV_AT_EPOCH": 17823,
    "BSTAR": 1.6395e-05,
    "MEAN_MOTION_DOT": 1.76e-06,
    "MEAN_MOTION_DDOT": 0.0,
    "TLE_LINE1": "1 53502U 22099AP  25315.27947121  .00000176  00000+0  16395-4 0  9997",
    "TLE_LINE2": "2 53502  97.6083  74.4882 0001260  88.1260 272.0111 15.05617255178239",
    "COMMENT": "Grouped by shell and plane from TLE"
  },
  {
    "OBJECT_NAME": "STARLINK-4448",
    "OBJECT_ID": "22099AR",
    "EPOCH": "2025-11-11T07:11:05.402112",
    "MEAN_MOTION": 15.01265459,
    "ECCENTRICITY": 0.0001274,
    "INCLINATION": 97.6063,
    "RA_OF_ASC_NODE": 74.3019,
    "ARG_OF_PERICENTER": 231.1665,
    "MEAN_ANOMALY": 128.9445,
    "EPHEMERIS_TYPE": 0,
    "CLASSIFICATION_TYPE": "U",
    "NORAD_CAT_ID": 53504,
    "ELEMENT_SET_NO": 999,
    "REV_AT_EPOCH": 17822,
    "BSTAR": 0.0,
    "MEAN_MOTION_DOT": -7e-06,
    "MEAN_MOTION_DDOT": 0.0,
    "TLE_LINE1": "1 53504U 22099AR  25315.29936808 -.00000700  00000+0 -49952-4 0  9991",
    "TLE_LINE2": "2 53504  97.6063  74.3019 0001274 231.1665 128.9445 15.01265459178223",
    "COMMENT": "Grouped by shell and plane from TLE"
  },
  {
    "OBJECT_NAME": "STARLINK-4446",
    "OBJECT_ID": "22099AS",
    "EPOCH": "2025-11-11T07:00:24.916320",
    "MEAN_MOTION": 15.01262424,
    "ECCENTRICITY": 0.0002775,
    "INCLINATION": 97.6042,
    "RA_OF_ASC_NODE": 74.2995,
    "ARG_OF_PERICENTER": 235.9332,
    "MEAN_ANOMALY": 124.1629,
    "EPHEMERIS_TYPE": 0,
    "CLASSIFICATION_TYPE": "U",
    "NORAD_CAT_ID": 53505,
    "ELEMENT_SET_NO": 999,
    "REV_AT_EPOCH": 17822,
    "BSTAR": 0.00013492000000000002,
    "MEAN_MOTION_DOT": 1.675e-05,
    "MEAN_MOTION_DDOT": 0.0,
    "TLE_LINE1": "1 53505U 22099AS  25315.29195505  .00001675  00000+0  13492-3 0  9992",
    "TLE_LINE2": "2 53505  97.6042  74.2995 0002775 235.9332 124.1629 15.01262424178224",
    "COMMENT": "Grouped by shell and plane from TLE"
  },
  {
    "OBJECT_NAME": "STARLINK-4437",
    "OBJECT_ID": "22099AT",
    "EPOCH": "2025-11-11T06:50:21.718176",
    "MEAN_MOTION": 15.05651744,
    "ECCENTRICITY": 0.0001254,
    "INCLINATION": 97.6049,
    "RA_OF_ASC_NODE": 74.4631,
    "ARG_OF_PERICENTER": 89.715,
    "MEAN_ANOMALY": 270.4221,
    "EPHEMERIS_TYPE": 0,
    "CLASSIFICATION_TYPE": "U",
    "NORAD_CAT_ID": 53506,
    "ELEMENT_SET_NO": 999,
    "REV_AT_EPOCH": 17823,
    "BSTAR": 0.00010759,
    "MEAN_MOTION_DOT": 1.492e-05,
    "MEAN_MOTION_DDOT": 0.0,
    "TLE_LINE1": "1 53506U 22099AT  25315.28497359  .00001492  00000+0  10759-3 0  9994",
    "TLE_LINE2": "2 53506  97.6049  74.4631 0001254  89.7150 270.4221 15.05651744178230",
    "COMMENT": "Grouped by shell and plane from TLE"
  },
  {
    "OBJECT_NAME": "STARLINK-4443",
    "OBJECT_ID": "22099AV",
    "EPOCH": "2025-11-11T07:46:11.545536",
    "MEAN_MOTION": 15.05656023,
    "ECCENTRICITY": 0.0001547,
    "INCLINATION": 97.6032,
    "RA_OF_ASC_NODE": 74.5651,
    "ARG_OF_PERICENTER": 91.5218,
    "MEAN_ANOMALY": 268.6186,
    "EPHEMERIS_TYPE": 0,
    "CLASSIFICATION_TYPE": "U",
    "NORAD_CAT_ID": 53508,
    "ELEMENT_SET_NO": 999,
    "REV_AT_EPOCH": 17824,
    "BSTAR": 0.0,
    "MEAN_MOTION_DOT": -3.67e-06,
    "MEAN_MOTION_DDOT": 0.0,
    "TLE_LINE1": "1 53508U 22099AV  25315.32374474 -.00000367  00000+0 -21228-4 0  9999",
    "TLE_LINE2": "2 53508  97.6032  74.5651 0001547  91.5218 268.6186 15.05656023178243",
    "COMMENT": "Grouped by shell and plane from TLE"
  },
  {
    "OBJECT_NAME": "STARLINK-4402",
    "OBJECT_ID": "22099AW",
    "EPOCH": "2025-11-11T06:55:06.616128",
    "MEAN_MOTION": 15.01250461,
    "ECCENTRICITY": 0.0001409,
    "INCLINATION": 97.6021,
    "RA_OF_ASC_NODE": 74.2957,
    "ARG_OF_PERICENTER": 193.1999,
    "MEAN_ANOMALY": 166.9188,
    "EPHEMERIS_TYPE": 0,
    "CLASSIFICATION_TYPE": "U",
    "NORAD_CAT_ID": 53509,
    "ELEMENT_SET_NO": 999,
    "REV_AT_EPOCH": 17822,
    "BSTAR": 0.0,
    "MEAN_MOTION_DOT": -2.17e-06,
    "MEAN_MOTION_DDOT": 0.0,
    "TLE_LINE1": "1 53509U 22099AW  25315.28827102 -.00000217  00000+0 -12342-4 0  9997",
    "TLE_LINE2": "2 53509  97.6021  74.2957 0001409 193.1999 166.9188 15.01250461178222",
    "COMMENT": "Grouped by shell and plane from TLE"
  },
  {
    "OBJECT_NAME": "STARLINK-4618",
    "OBJECT_ID": "22107AM",
    "EPOCH": "2025-11-11T07:15:54.601056",
    "MEAN_MOTION": 15.08840799,
    "ECCENTRICITY": 0.0001536,
    "INCLINATION": 53.2204,
    "RA_OF_ASC_NODE": 75.3929,
    "ARG_OF_PERICENTER": 93.9092,
    "MEAN_ANOMALY": 266.2076,
    "EPHEMERIS_TYPE": 0,
    "CLASSIFICATION_TYPE": "U",
    "NORAD_CAT_ID": 53735,
    "ELEMENT_SET_NO": 999,
    "REV_AT_EPOCH": 17657,
    "BSTAR": 7.5345e-05,
    "MEAN_MOTION_DOT": 9.11e-06,
    "MEAN_MOTION_DDOT": 0.0,
    "TLE_LINE1": "1 53735U 22107AM  25315.30271529  .00000911  00000+0  75345-4 0  9998",
    "TLE_LINE2": "2 53735  53.2204  75.3929 0001536  93.9092 266.2076 15.08840799176579",
    "COMMENT": "Grouped by shell and plane from TLE"
  },
  {
    "OBJECT_NAME": "STARLINK-4662",
    "OBJECT_ID": "22107AQ",
    "EPOCH": "2025-11-11T07:10:35.868000",
    "MEAN_MOTION": 15.08840382,
    "ECCENTRICITY": 0.0001397,
    "INCLINATION": 53.2168,
    "RA_OF_ASC_NODE": 75.3686,
    "ARG_OF_PERICENTER": 98.1815,
    "MEAN_ANOMALY": 261.9336,
    "EPHEMERIS_TYPE": 0,
    "CLASSIFICATION_TYPE": "U",
    "NORAD_CAT_ID": 53738,
    "ELEMENT_SET_NO": 999,
    "REV_AT_EPOCH": 17657,
    "BSTAR": 0.0,
    "MEAN_MOTION_DOT": -2.909e-05,
    "MEAN_MOTION_DDOT": 0.0,
    "TLE_LINE1": "1 53738U 22107AQ  25315.29902625 -.00002909  00000+0 -16474-3 0  9995",
    "TLE_LINE2": "2 53738  53.2168  75.3686 0001397  98.1815 261.9336 15.08840382176575",
    "COMMENT": "Grouped by shell and plane from TLE"
  }
]